start=new Date('2023-01-03T00:00:00.000Z').valueOf();
sats=[{"REF_FRAME":"TEME","FILE":"3729583","MEAN_ELEMENT_THEORY":"SGP4","APOAPSIS":"541.704","SEMIMAJOR_AXIS":"6917.906","TLE_LINE1":"1 52310U 22041BB  23002.44433624  .00001826  00000-0  13285-3 0  9996","ARG_OF_PERICENTER":"32.9608","PERIOD":"95.438","OBJECT_NAME":"STARLINK-3688","CLASSIFICATION_TYPE":"U","MEAN_MOTION":"15.08831579","EPOCH":"2023-01-02T10:39:50.651136","NORAD_CAT_ID":"52310","DECAY_DATE":null,"CENTER_NAME":"EARTH","MEAN_ANOMALY":"327.1558","OBJECT_ID":"2022-041BB","OBJECT_TYPE":"PAYLOAD","EPHEMERIS_TYPE":"0","INCLINATION":"53.2166","GP_ID":"222032429","COUNTRY_CODE":"US","PERIAPSIS":"537.838","SITE":"AFETR","ELEMENT_SET_NO":"999","LAUNCH_DATE":"2022-04-21","TLE_LINE2":"2 52310  53.2166 266.6537 0002794  32.9608 327.1558 15.08831579 40407","MEAN_MOTION_DOT":"0.00001826","ECCENTRICITY":"0.00027940","BSTAR":"0.00013285000000","RA_OF_ASC_NODE":"266.6537","REV_AT_EPOCH":"4040","MEAN_MOTION_DDOT":"0.0000000000000","TIME_SYSTEM":"UTC","RCS_SIZE":"LARGE"},{"MEAN_ANOMALY":"335.0749","OBJECT_ID":"2022-041BC","CENTER_NAME":"EARTH","MEAN_MOTION":"15.08825967","EPOCH":"2023-01-02T17:05:18.943584","CLASSIFICATION_TYPE":"U","NORAD_CAT_ID":"52311","DECAY_DATE":null,"PERIOD":"95.438","OBJECT_NAME":"STARLINK-3750","ARG_OF_PERICENTER":"25.0394","TLE_LINE1":"1 52311U 22041BC  23002.71202481  .00000158  00000-0  28046-4 0  9991","APOAPSIS":"541.958","SEMIMAJOR_AXIS":"6917.923","MEAN_ELEMENT_THEORY":"SGP4","FILE":"3729873","REF_FRAME":"TEME","TIME_SYSTEM":"UTC","RCS_SIZE":"LARGE","RA_OF_ASC_NODE":"265.4362","REV_AT_EPOCH":"4044","MEAN_MOTION_DDOT":"0.0000000000000","BSTAR":"0.00002804600000","TLE_LINE2":"2 52311  53.2190 265.4362 0003136  25.0394 335.0749 15.08825967 40442","ECCENTRICITY":"0.00031360","MEAN_MOTION_DOT":"0.00000158","ELEMENT_SET_NO":"999","LAUNCH_DATE":"2022-04-21","SITE":"AFETR","GP_ID":"222064731","PERIAPSIS":"537.619","COUNTRY_CODE":"US","EPHEMERIS_TYPE":"0","OBJECT_TYPE":"PAYLOAD","INCLINATION":"53.2190"},{"SITE":"AFETR","LAUNCH_DATE":"2022-04-21","ELEMENT_SET_NO":"999","INCLINATION":"53.2138","OBJECT_TYPE":"PAYLOAD","EPHEMERIS_TYPE":"0","COUNTRY_CODE":"US","PERIAPSIS":"538.351","GP_ID":"222031438","MEAN_MOTION_DDOT":"0.0000000000000","REV_AT_EPOCH":"4036","RA_OF_ASC_NODE":"267.9897","RCS_SIZE":"LARGE","TIME_SYSTEM":"UTC","MEAN_MOTION_DOT":"0.00007353","ECCENTRICITY":"0.00021270","TLE_LINE2":"2 52312  53.2138 267.9897 0002127  34.1934 325.9195 15.08814874 40364","BSTAR":"0.00047994000000","TLE_LINE1":"1 52312U 22041BD  23002.14626567  .00007353  00000-0  47994-3 0  9990","ARG_OF_PERICENTER":"34.1934","REF_FRAME":"TEME","MEAN_ELEMENT_THEORY":"SGP4","FILE":"3729583","APOAPSIS":"541.294","SEMIMAJOR_AXIS":"6917.957","CENTER_NAME":"EARTH","MEAN_ANOMALY":"325.9195","OBJECT_ID":"2022-041BD","OBJECT_NAME":"STARLINK-3752","PERIOD":"95.439","NORAD_CAT_ID":"52312","DECAY_DATE":null,"MEAN_MOTION":"15.08814874","CLASSIFICATION_TYPE":"U","EPOCH":"2023-01-02T03:30:37.353888"},{"ECCENTRICITY":"0.00022170","MEAN_MOTION_DOT":"0.00000198","TLE_LINE2":"2 52313  53.2164 265.3167 0002217  30.4648 329.6472 15.08830466 40451","BSTAR":"0.00003053600000","MEAN_MOTION_DDOT":"0.0000000000000","REV_AT_EPOCH":"4045","RA_OF_ASC_NODE":"265.3167","RCS_SIZE":"LARGE","TIME_SYSTEM":"UTC","INCLINATION":"53.2164","EPHEMERIS_TYPE":"0","OBJECT_TYPE":"PAYLOAD","PERIAPSIS":"538.241","COUNTRY_CODE":"US","GP_ID":"222066232","SITE":"AFETR","LAUNCH_DATE":"2022-04-21","ELEMENT_SET_NO":"999","OBJECT_NAME":"STARLINK-3749","PERIOD":"95.438","NORAD_CAT_ID":"52313","DECAY_DATE":null,"EPOCH":"2023-01-02T17:47:42.794592","MEAN_MOTION":"15.08830466","CLASSIFICATION_TYPE":"U","CENTER_NAME":"EARTH","OBJECT_ID":"2022-041BE","MEAN_ANOMALY":"329.6472","REF_FRAME":"TEME","SEMIMAJOR_AXIS":"6917.910","APOAPSIS":"541.308","FILE":"3729873","MEAN_ELEMENT_THEORY":"SGP4","ARG_OF_PERICENTER":"30.4648","TLE_LINE1":"1 52313U 22041BE  23002.74146753  .00000198  00000-0  30536-4 0  9996"},{"PERIOD":"95.438","OBJECT_NAME":"STARLINK-3889","CLASSIFICATION_TYPE":"U","EPOCH":"2023-01-02T07:59:29.840064","MEAN_MOTION":"15.08834531","NORAD_CAT_ID":"52331","DECAY_DATE":null,"CENTER_NAME":"EARTH","OBJECT_ID":"2022-045A","MEAN_ANOMALY":"338.5592","REF_FRAME":"TEME","SEMIMAJOR_AXIS":"6917.897","APOAPSIS":"541.810","FILE":"3729583","MEAN_ELEMENT_THEORY":"SGP4","ARG_OF_PERICENTER":"21.5525","TLE_LINE1":"1 52331U 22045A   23002.33298426  .00012423  00000-0  79736-3 0  9998","TLE_LINE2":"2 52331  53.2165  27.1483 0002960  21.5525 338.5592 15.08834531 40164","ECCENTRICITY":"0.00029600","MEAN_MOTION_DOT":"0.00012423","BSTAR":"0.00079736000000","RA_OF_ASC_NODE":"27.1483","MEAN_MOTION_DDOT":"0.0000000000000","REV_AT_EPOCH":"4016","TIME_SYSTEM":"UTC","RCS_SIZE":"LARGE","EPHEMERIS_TYPE":"0","OBJECT_TYPE":"PAYLOAD","INCLINATION":"53.2165","GP_ID":"222032929","PERIAPSIS":"537.714","COUNTRY_CODE":"US","SITE":"AFETR","ELEMENT_SET_NO":"999","LAUNCH_DATE":"2022-04-29"},{"REF_FRAME":"TEME","SEMIMAJOR_AXIS":"6917.900","APOAPSIS":"541.163","FILE":"3729583","MEAN_ELEMENT_THEORY":"SGP4","ARG_OF_PERICENTER":"44.9479","TLE_LINE1":"1 52332U 22045B   23002.47650408 -.00000085  00000-0  12796-4 0  9992","OBJECT_NAME":"STARLINK-3831","PERIOD":"95.438","DECAY_DATE":null,"NORAD_CAT_ID":"52332","CLASSIFICATION_TYPE":"U","EPOCH":"2023-01-02T11:26:09.952512","MEAN_MOTION":"15.08833685","CENTER_NAME":"EARTH","OBJECT_ID":"2022-045B","MEAN_ANOMALY":"315.1676","INCLINATION":"53.2170","EPHEMERIS_TYPE":"0","OBJECT_TYPE":"PAYLOAD","PERIAPSIS":"538.367","COUNTRY_CODE":"US","GP_ID":"222031189","SITE":"AFETR","LAUNCH_DATE":"2022-04-29","ELEMENT_SET_NO":"999","ECCENTRICITY":"0.00020210","MEAN_MOTION_DOT":"-0.00000085","TLE_LINE2":"2 52332  53.2170  26.4939 0002021  44.9479 315.1676 15.08833685 40189","BSTAR":"0.00001279600000","REV_AT_EPOCH":"4018","MEAN_MOTION_DDOT":"0.0000000000000","RA_OF_ASC_NODE":"26.4939","RCS_SIZE":"LARGE","TIME_SYSTEM":"UTC"},{"TLE_LINE1":"1 52333U 22045C   23002.53906693  .00010220  00000-0  65927-3 0  9994","ARG_OF_PERICENTER":"27.1685","REF_FRAME":"TEME","FILE":"3729841","MEAN_ELEMENT_THEORY":"SGP4","SEMIMAJOR_AXIS":"6917.877","APOAPSIS":"541.557","CENTER_NAME":"EARTH","OBJECT_ID":"2022-045C","MEAN_ANOMALY":"332.9444","OBJECT_NAME":"STARLINK-3847","PERIOD":"95.437","DECAY_DATE":null,"NORAD_CAT_ID":"52333","MEAN_MOTION":"15.08841069","EPOCH":"2023-01-02T12:56:15.382752","CLASSIFICATION_TYPE":"U","SITE":"AFETR","LAUNCH_DATE":"2022-04-29","ELEMENT_SET_NO":"999","INCLINATION":"53.2180","OBJECT_TYPE":"PAYLOAD","EPHEMERIS_TYPE":"0","COUNTRY_CODE":"US","PERIAPSIS":"537.927","GP_ID":"222041317","MEAN_MOTION_DDOT":"0.0000000000000","REV_AT_EPOCH":"4018","RA_OF_ASC_NODE":"26.2149","RCS_SIZE":"LARGE","TIME_SYSTEM":"UTC","MEAN_MOTION_DOT":"0.00010220","ECCENTRICITY":"0.00026240","TLE_LINE2":"2 52333  53.2180  26.2149 0002624  27.1685 332.9444 15.08841069 40188","BSTAR":"0.00065927000000"},{"MEAN_ANOMALY":"333.1509","OBJECT_ID":"2022-045D","CENTER_NAME":"EARTH","CLASSIFICATION_TYPE":"U","EPOCH":"2023-01-02T19:01:54.025824","MEAN_MOTION":"15.08841887","DECAY_DATE":null,"NORAD_CAT_ID":"52334","PERIOD":"95.437","OBJECT_NAME":"STARLINK-3880","ARG_OF_PERICENTER":"26.9639","TLE_LINE1":"1 52334U 22045D   23002.79298641  .00010762  00000-0  69317-3 0  9998","SEMIMAJOR_AXIS":"6917.875","APOAPSIS":"541.815","FILE":"3729873","MEAN_ELEMENT_THEORY":"SGP4","REF_FRAME":"TEME","TIME_SYSTEM":"UTC","RCS_SIZE":"LARGE","RA_OF_ASC_NODE":"25.0933","REV_AT_EPOCH":"4022","MEAN_MOTION_DDOT":"0.0000000000000","BSTAR":"0.00069317000000","TLE_LINE2":"2 52334  53.2173  25.0933 0003000  26.9639 333.1509 15.08841887 40222","ECCENTRICITY":"0.00030000","MEAN_MOTION_DOT":"0.00010762","ELEMENT_SET_NO":"999","LAUNCH_DATE":"2022-04-29","SITE":"AFETR","GP_ID":"222065734","PERIAPSIS":"537.664","COUNTRY_CODE":"US","EPHEMERIS_TYPE":"0","OBJECT_TYPE":"PAYLOAD","INCLINATION":"53.2173"},{"MEAN_ANOMALY":"330.4502","OBJECT_ID":"2022-045E","CENTER_NAME":"EARTH","EPOCH":"2023-01-02T20:31:58.333728","MEAN_MOTION":"15.08842840","CLASSIFICATION_TYPE":"U","NORAD_CAT_ID":"52335","DECAY_DATE":null,"PERIOD":"95.437","OBJECT_NAME":"STARLINK-3814","ARG_OF_PERICENTER":"29.6640","TLE_LINE1":"1 52335U 22045E   23002.85553627  .00000928  00000-0  76433-4 0  9995","APOAPSIS":"541.562","SEMIMAJOR_AXIS":"6917.872","MEAN_ELEMENT_THEORY":"SGP4","FILE":"3729873","REF_FRAME":"TEME","TIME_SYSTEM":"UTC","RCS_SIZE":"LARGE","RA_OF_ASC_NODE":"24.8097","REV_AT_EPOCH":"4024","MEAN_MOTION_DDOT":"0.0000000000000","BSTAR":"0.00007643300000","TLE_LINE2":"2 52335  53.2176  24.8097 0002639  29.6640 330.4502 15.08842840 40248","ECCENTRICITY":"0.00026390","MEAN_MOTION_DOT":"0.00000928","ELEMENT_SET_NO":"999","LAUNCH_DATE":"2022-04-29","SITE":"AFETR","GP_ID":"222064483","PERIAPSIS":"537.911","COUNTRY_CODE":"US","EPHEMERIS_TYPE":"0","OBJECT_TYPE":"PAYLOAD","INCLINATION":"53.2176"},{"PERIOD":"95.437","OBJECT_NAME":"STARLINK-3823","EPOCH":"2023-01-02T18:47:22.053696","MEAN_MOTION":"15.08852940","CLASSIFICATION_TYPE":"U","DECAY_DATE":null,"NORAD_CAT_ID":"52336","CENTER_NAME":"EARTH","OBJECT_ID":"2022-045F","MEAN_ANOMALY":"330.0456","REF_FRAME":"TEME","SEMIMAJOR_AXIS":"6917.841","APOAPSIS":"541.631","FILE":"3729873","MEAN_ELEMENT_THEORY":"SGP4","ARG_OF_PERICENTER":"30.0695","TLE_LINE1":"1 52336U 22045F   23002.78289414 -.00000206  00000-0  51755-5 0  9999","TLE_LINE2":"2 52336  53.2184  25.1403 0002783  30.0695 330.0456 15.08852940 40234","ECCENTRICITY":"0.00027830","MEAN_MOTION_DOT":"-0.00000206","BSTAR":"0.00000517550000","RA_OF_ASC_NODE":"25.1403","REV_AT_EPOCH":"4023","MEAN_MOTION_DDOT":"0.0000000000000","TIME_SYSTEM":"UTC","RCS_SIZE":"LARGE","EPHEMERIS_TYPE":"0","OBJECT_TYPE":"PAYLOAD","INCLINATION":"53.2184","GP_ID":"222064733","PERIAPSIS":"537.781","COUNTRY_CODE":"US","SITE":"AFETR","ELEMENT_SET_NO":"999","LAUNCH_DATE":"2022-04-29"}];
